OBJECT_NAME,OBJECT_ID,EPOCH,MEAN_MOTION,ECCENTRICITY,INCLINATION,RA_OF_ASC_NODE,ARG_OF_PERICENTER,MEAN_ANOMALY,EPHEMERIS_TYPE,CLASSIFICATION_TYPE,NORAD_CAT_ID,ELEMENT_SET_NO,REV_AT_EPOCH,BSTAR,MEAN_MOTION_DOT,MEAN_MOTION_DDOT
LEMUR-1,2014-033AL,2026-07-23T08:02:56.867424,14.85354668,.00471529,97.7918,353.3487,320.8149,38.9656,0,U,40044,999,65083,.16415314E-3,.1384E-4,0
LEMUR-2-GREENBERG,2017-042N,2026-07-22T22:46:34.505472,15.32339048,.00076392,97.3839,24.4400,227.5103,132.5494,0,U,42837,999,49386,.62365481E-3,.19439E-3,0
LEMUR-2-ANDIS,2017-042P,2026-07-22T22:59:15.651456,15.36171560,.00076276,97.3692,24.7629,226.5024,133.5586,0,U,42838,999,49394,.72180988E-3,.25435E-3,0
LEMUR-2-MONSON,2017-042Q,2026-07-23T02:26:39.512544,15.28924414,.00058613,97.4103,24.5078,213.0819,147.0055,0,U,42839,999,49365,.61671021E-3,.17282E-3,0
LEMUR-2-FURIAUS,2017-042R,2026-07-22T23:12:36.620928,15.31323478,.00056366,97.3787,22.3327,296.2967,63.7695,0,U,42840,999,49368,.68329855E-3,.20637E-3,0
LEMUR-2-PETERG,2017-042S,2026-07-23T11:37:56.549856,15.35280867,.00039668,97.4004,29.6143,187.4253,172.6933,0,U,42841,999,49400,.63769539E-3,.21806E-3,0
LEMUR-2-DEMBITZ,2017-042T,2026-07-23T13:48:07.411392,15.31310180,.00053801,97.3836,25.9869,236.6769,123.3958,0,U,42842,999,49391,.58162651E-3,.1754E-3,0
LEMUR-2-ZACHARY,2017-042W,2026-07-23T01:00:44.458272,15.53318099,.00030784,97.3580,36.5204,214.2552,145.8503,0,U,42845,999,49476,.94823677E-3,.60078E-3,0
LEMUR-2-AMANDA-SVANTE,2021-034B,2026-07-23T04:51:38.467584,15.36348536,.00047863,97.5742,283.4904,125.9635,234.2053,0,U,48269,999,28658,.10329534E-2,.36673E-3,0
LEMUR-2-SPECIAL-K,2021-034F,2026-07-23T04:55:39.217728,15.78328874,.00059947,97.5611,294.0251,210.7162,149.3754,0,U,48273,999,28734,.19480771E-2,.347401E-2,0
LEMUR-2-EMBRIONOVIS,2023-084AQ,2026-07-23T09:01:37.961184,15.38397436,.00089671,97.6330,349.9973,176.9139,183.2162,0,U,56970,999,17324,.37473764E-3,.1413E-3,0
LEMUR-2-DEVERILL-M-T,2023-100F,2026-07-23T09:52:04.774368,15.41409931,.00049906,99.4452,253.6815,262.7805,97.2868,0,U,57391,999,16682,.62916478E-3,.26252E-3,0
LEMUR-2-BASS,2023-174D,2026-07-23T12:15:38.119104,15.44209998,.00070688,97.3838,289.7585,52.2558,307.9330,0,U,58259,999,15096,.40057588E-3,.18333E-3,0
LEMUR-2-JK0903EM1407,2023-174CJ,2026-07-23T05:40:33.703680,15.53397670,.00029214,97.3918,295.7684,357.9462,2.1779,0,U,58336,999,15132,.45246704E-3,.28584E-3,0
LEMUR-2-MJR092620,2023-174CN,2026-07-23T05:19:46.921440,15.46089805,.00045188,97.3967,294.9463,359.5789,0.5456,0,U,58340,999,15121,.42713921E-3,.20843E-3,0
LEMUR-2-NIMBUS2000,2024-022A,2026-07-23T09:13:13.488096,15.41383552,.00078466,97.4082,54.8710,359.5902,0.5337,0,U,58899,999,13784,.52874023E-3,.22052E-3,0
LEMUR-2-VALHALLA,2024-022B,2026-07-23T03:11:10.020768,15.40670183,.0008368,97.4083,54.5774,355.7058,4.4115,0,U,58900,999,13780,.41338018E-3,.1681E-3,0
LEMUR-2-CAEL,2024-022E,2026-07-23T07:20:34.836864,15.42063777,.00062493,97.4063,55.7544,338.2355,21.8626,0,U,58903,999,13790,.42823164E-3,.18236E-3,0
LEMUR-2-JOHNNYTRUONG,2024-043BA,2026-07-23T08:23:36.459456,15.63096316,.00035958,97.5396,358.3729,67.1091,293.0546,0,U,59146,999,13368,.53296466E-3,.48593E-3,0
LEMUR-2-TOMATOKECHUP,2024-149D,2026-07-23T04:32:37.253184,15.36706847,.00034583,97.3787,286.3428,108.0349,252.1272,0,U,60471,999,10769,.3274959E-3,.11667E-3,0
LEMUR-2-STELLA,2024-149BT,2026-07-23T05:04:35.407488,15.12495058,.00014812,97.6726,286.8402,122.3679,237.7695,0,U,60533,999,10594,.63844612E-3,.11056E-3,0
LEMUR-2-MARHISYAM,2024-149BW,2026-07-23T11:17:16.985472,15.11892167,.00019577,97.6869,287.5851,55.2489,304.8925,0,U,60536,999,10596,.55364067E-3,.9417E-4,0
LEMUR-2-AHMED-ASRAR,2024-149DN,2026-07-23T11:14:33.797472,15.13441206,.00019117,97.6992,289.8194,180.7299,179.3929,0,U,60576,999,10605,.64780658E-3,.1152E-3,0
LEMUR-2-LLOYD,2024-149DP,2026-07-23T11:59:05.529120,15.09867192,.00040856,97.6738,285.6616,49.6539,310.5046,0,U,60577,999,10587,.66043179E-3,.10637E-3,0
LEMUR-2-SQUIRRELCOMM,2024-149DQ,2026-07-23T12:01:07.125024,15.07513592,.00038859,97.6705,285.3042,288.6334,71.4471,0,U,60578,999,10587,.41276297E-3,.6206E-4,0
LEMUR-2-SIERRINI,2024-149DR,2026-07-23T12:00:56.329344,15.11643902,.00060225,97.6835,287.2691,68.6196,291.5676,0,U,60579,999,10594,.70551194E-3,.11944E-3,0
LEMUR-2-WILSON,2025-009CP,2026-07-23T03:57:47.613024,14.95300842,.00015377,97.7016,281.9988,276.7410,83.3636,0,U,62694,999,8273,.20949158E-3,.2251E-4,0
LEMUR-2-STAR-FOX,2025-009CR,2026-07-23T04:23:42.442368,15.02923009,.00013954,97.6905,285.5326,8.2917,351.8330,0,U,62696,999,8296,.60794031E-3,.8107E-4,0
LEMUR-2-ARIANNA,2025-009CU,2026-07-23T04:21:28.574208,15.02927089,.00017553,97.6849,285.2770,20.3119,339.8175,0,U,62699,999,8296,.6111167E-3,.8151E-4,0
